0 SL-8 R/B
1 29659U 06060B   13282.42968030  .00061275  00000-0  75060-3 0   556
2 29659 098.0736 205.9303 0020456 085.7941 050.2110 15.59916510381035
0 SL-8 R/B
1 29659U 06060B   13282.86179030  .00050805  00000-0  62255-3 0   568
2 29659 098.0736 206.4212 0020408 084.4314 316.6229 15.59953236381101
0 SL-8 R/B
1 29659U 06060B   13283.88796206  .00051686  00000-0  63116-3 0   577
2 29659 098.0737 207.5876 0020297 081.3247 318.9647 15.60042908381260
0 SL-8 R/B
1 29659U 06060B   13285.37664778  .00046913  00000-0  57047-3 0   585
2 29659 098.0741 209.2799 0020177 076.6278 039.2927 15.60177627381492
0 SL-8 R/B
1 29659U 06060B   13286.77631788  .00048988  00000-0  59274-3 0   594
2 29659 098.0745 210.8712 0020055 072.0881 340.4988 15.60302064381718
0 SL-8 R/B
1 29659U 06060B   13287.80424740  .00060835  00000-0  73196-3 0   603
2 29659 098.0743 212.0396 0019924 068.9496 354.0511 15.60402498381879
0 SL-8 R/B
1 29659U 06060B   13289.42024002  .00061580  00000-0  73546-3 0   618
2 29659 098.0751 213.8779 0019588 064.2183 071.2508 15.60601519382128
0 SL-8 R/B
1 29659U 06060B   13290.38325738  .00064650  00000-0  76894-3 0   626
2 29659 098.0757 214.9734 0019457 060.9840 081.5428 15.60700447382276
0 SL-8 R/B
1 29659U 06060B   13290.74262681  .00077572  00000-0  92617-3 0   632
2 29659 098.0752 215.3820 0019801 058.5080 301.8634 15.60749272382337
0 SL-8 R/B
1 29659U 06060B   13291.34649242  .00058292  00000-0  69118-3 0   639
2 29659 098.0750 216.0698 0019497 057.9032 093.2603 15.60805666382425
0 SL-8 R/B
1 29659U 06060B   13292.43362628  .00056478  00000-0  66696-3 0   643
2 29659 098.0755 217.3067 0019192 054.7037 081.2377 15.60926396382593
0 SL-8 R/B
1 29659U 06060B   13293.82966392  .00063100  00000-0  74049-3 0   657
2 29659 098.0753 218.8956 0018932 050.5388 005.4954 15.61069658382812
0 SL-8 R/B
1 29659U 06060B   13294.85265714  .00067857  00000-0  79252-3 0   666
2 29659 098.0753 220.0604 0018719 047.3067 354.2785 15.61180921382979
0 SL-8 R/B
1 29659U 06060B   13295.44619841  .00066609  00000-0  77631-3 0   670
2 29659 098.0751 220.7363 0018598 045.5336 089.8152 15.61243083383069
